[{"OBJECT_NAME":"LEAP-1","OBJECT_ID":"2025-188G","EPOCH":"2026-03-09T22:53:24.912384","MEAN_MOTION":14.91029784,"ECCENTRICITY":0.00036947,"INCLINATION":97.7428,"RA_OF_ASC_NODE":145.2206,"ARG_OF_PERICENTER":154.4312,"MEAN_ANOMALY":205.709,"EPHEMERIS_TYPE":0,"CLASSIFICATION_TYPE":"U","NORAD_CAT_ID":65321,"ELEMENT_SET_NO":999,"REV_AT_EPOCH":2906,"BSTAR":0.00043957921,"MEAN_MOTION_DOT":4.295e-5,"MEAN_MOTION_DDOT":0},{"OBJECT_NAME":"SL-14 R\/B","OBJECT_ID":"1981-117B","EPOCH":"2026-03-09T17:56:04.213536","MEAN_MOTION":14.87267707,"ECCENTRICITY":0.00186594,"INCLINATION":82.5251,"RA_OF_ASC_NODE":320.3846,"ARG_OF_PERICENTER":104.7501,"MEAN_ANOMALY":255.5785,"EPHEMERIS_TYPE":0,"CLASSIFICATION_TYPE":"U","NORAD_CAT_ID":12988,"ELEMENT_SET_NO":999,"REV_AT_EPOCH":37192,"BSTAR":6.5348474e-5,"MEAN_MOTION_DOT":6.15e-6,"MEAN_MOTION_DDOT":0}]
